{
    "links": {
        "self": "http://www.neowsapp.com/rest/v1/neo/3745061?api_key=iIulBulltgU6a56xZRHN4H3l9WmuAYTsLGpBGhQ2"
    },
    "id": "3745061",
    "neo_reference_id": "3745061",
    "name": "(2016 ER1)",
    "designation": "2016 ER1",
    "nasa_jpl_url": "http://ssd.jpl.nasa.gov/sbdb.cgi?sstr=3745061",
    "absolute_magnitude_h": 23.5,
    "estimated_diameter": {
        "kilometers": {
            "estimated_diameter_min": 0.0530340723,
            "estimated_diameter_max": 0.1185877909
        },
        "meters": {
            "estimated_diameter_min": 53.0340723319,
            "estimated_diameter_max": 118.5877908577
        },
        "miles": {
            "estimated_diameter_min": 0.0329538346,
            "estimated_diameter_max": 0.0736870142
        },
        "feet": {
            "estimated_diameter_min": 173.9963058693,
            "estimated_diameter_max": 389.0675677576
        }
    },
    "is_potentially_hazardous_asteroid": false,
    "close_approach_data": [
        {
            "close_approach_date": "2016-03-08",
            "close_approach_date_full": "2016-Mar-08 22:26",
            "epoch_date_close_approach": 1457475960000,
            "relative_velocity": {
                "kilometers_per_second": "19.6327499417",
                "kilometers_per_hour": "70677.8997900487",
                "miles_per_hour": "43916.4983445444"
            },
            "miss_distance": {
                "astronomical": "0.0664949154",
                "lunar": "25.8665220906",
                "kilometers": "9947497.709670198",
                "miles": "6181088.4559088124"
            },
            "orbiting_body": "Earth"
        }
    ],
    "orbital_data": {
        "orbit_id": "4",
        "orbit_determination_date": "2017-04-06 08:27:52",
        "first_observation_date": "2016-03-02",
        "last_observation_date": "2016-03-07",
        "data_arc_in_days": 5,
        "observations_used": 34,
        "orbit_uncertainty": "9",
        "minimum_orbit_intersection": ".0529052",
        "jupiter_tisserand_invariant": "3.370",
        "epoch_osculation": "2457451.5",
        "eccentricity": ".6846653666544615",
        "semi_major_axis": "2.133724159852129",
        "inclination": "4.020112317467476",
        "ascending_node_longitude": "98.95084263213381",
        "orbital_period": "1138.428708008027",
        "perihelion_distance": ".6728371256074883",
        "perihelion_argument": "148.4856909750886",
        "aphelion_distance": "3.59461119409677",
        "perihelion_time": "2457501.327307979159",
        "mean_anomaly": "344.2433428230354",
        "mean_motion": ".3162253353834621",
        "equinox": "J2000",
        "orbit_class": {
            "orbit_class_type": "APO",
            "orbit_class_description": "Near-Earth asteroid orbits which cross the Earth’s orbit similar to that of 1862 Apollo",
            "orbit_class_range": "a (semi-major axis) > 1.0 AU; q (perihelion) < 1.017 AU"
        }
    },
    "is_sentry_object": false
}